start=new Date('2021-09-06T00:00:00.000Z').valueOf();
sats=[{"LAUNCH_DATE":"2020-11-25","REF_FRAME":"TEME","MEAN_MOTION":"15.06398447","RA_OF_ASC_NODE":"132.1516","MEAN_ELEMENT_THEORY":"SGP4","BSTAR":"-0.00002494800000","PERIAPSIS":"545.907","OBJECT_TYPE":"PAYLOAD","MEAN_MOTION_DDOT":"0.0000000000000","INCLINATION":"53.0546","CENTER_NAME":"EARTH","ELEMENT_SET_NO":"999","SEMIMAJOR_AXIS":"6925.353","REV_AT_EPOCH":"4370","OBJECT_NAME":"STARLINK-1891","SITE":"AFETR","EPHEMERIS_TYPE":"0","PERIOD":"95.592","RCS_SIZE":"LARGE","EPOCH":"2021-09-05T09:21:22.728096","TLE_LINE1":"1 47174U 20088BE  21248.38984639 -.00000653  00000-0 -24948-4 0  9995","DECAY_DATE":null,"TLE_LINE2":"2 47174  53.0546 132.1516 0001894  69.0476 291.0716 15.06398447 43708","NORAD_CAT_ID":"47174","GP_ID":"184139598","MEAN_ANOMALY":"291.0716","OBJECT_ID":"2020-088BE","MEAN_MOTION_DOT":"-0.00000653","TIME_SYSTEM":"UTC","ARG_OF_PERICENTER":"69.0476","FILE":"3109252","ECCENTRICITY":"0.00018940","CLASSIFICATION_TYPE":"U","APOAPSIS":"548.530","COUNTRY_CODE":"US"},{"MEAN_ELEMENT_THEORY":"SGP4","PERIAPSIS":"546.142","BSTAR":"0.00009351600000","REF_FRAME":"TEME","LAUNCH_DATE":"2020-11-25","RA_OF_ASC_NODE":"110.6509","MEAN_MOTION":"15.06391346","REV_AT_EPOCH":"4403","OBJECT_NAME":"STARLINK-1895","SEMIMAJOR_AXIS":"6925.375","ELEMENT_SET_NO":"999","SITE":"AFETR","INCLINATION":"53.0548","OBJECT_TYPE":"PAYLOAD","MEAN_MOTION_DDOT":"0.0000000000000","CENTER_NAME":"EARTH","TLE_LINE1":"1 47175U 20088BF  21248.71972767  .00001111  00000-0  93516-4 0  9997","TLE_LINE2":"2 47175  53.0548 110.6509 0001586  72.1630 287.9532 15.06391346 44037","GP_ID":"184166286","NORAD_CAT_ID":"47175","DECAY_DATE":null,"PERIOD":"95.593","EPHEMERIS_TYPE":"0","RCS_SIZE":"LARGE","EPOCH":"2021-09-05T17:16:24.470688","ECCENTRICITY":"0.00015860","CLASSIFICATION_TYPE":"U","ARG_OF_PERICENTER":"72.1630","FILE":"3109348","COUNTRY_CODE":"US","APOAPSIS":"548.338","OBJECT_ID":"2020-088BF","MEAN_ANOMALY":"287.9532","MEAN_MOTION_DOT":"0.00001111","TIME_SYSTEM":"UTC"},{"RA_OF_ASC_NODE":"120.7456","MEAN_MOTION":"15.06413582","REF_FRAME":"TEME","LAUNCH_DATE":"2020-11-25","PERIAPSIS":"545.947","BSTAR":"0.00012525000000","MEAN_ELEMENT_THEORY":"SGP4","CENTER_NAME":"EARTH","INCLINATION":"53.0549","OBJECT_TYPE":"PAYLOAD","MEAN_MOTION_DDOT":"0.0000000000000","SITE":"AFETR","REV_AT_EPOCH":"4389","OBJECT_NAME":"STARLINK-1907","ELEMENT_SET_NO":"999","SEMIMAJOR_AXIS":"6925.307","RCS_SIZE":"LARGE","EPOCH":"2021-09-05T16:53:51.825120","PERIOD":"95.591","EPHEMERIS_TYPE":"0","TLE_LINE2":"2 47177  53.0549 120.7456 0001769  90.6127 269.5065 15.06413582 43899","NORAD_CAT_ID":"47177","GP_ID":"184165538","DECAY_DATE":null,"TLE_LINE1":"1 47177U 20088BH  21248.70407205  .00001585  00000-0  12525-3 0  9993","MEAN_MOTION_DOT":"0.00001585","TIME_SYSTEM":"UTC","OBJECT_ID":"2020-088BH","MEAN_ANOMALY":"269.5065","COUNTRY_CODE":"US","APOAPSIS":"548.397","ECCENTRICITY":"0.00017690","CLASSIFICATION_TYPE":"U","ARG_OF_PERICENTER":"90.6127","FILE":"3109348"},{"CENTER_NAME":"EARTH","OBJECT_TYPE":"PAYLOAD","MEAN_MOTION_DDOT":"0.0000000000000","INCLINATION":"53.0542","SITE":"AFETR","SEMIMAJOR_AXIS":"6925.327","ELEMENT_SET_NO":"999","REV_AT_EPOCH":"4374","OBJECT_NAME":"STARLINK-1912","RA_OF_ASC_NODE":"130.8126","MEAN_MOTION":"15.06407002","LAUNCH_DATE":"2020-11-25","REF_FRAME":"TEME","BSTAR":"0.00008267200000","PERIAPSIS":"545.991","MEAN_ELEMENT_THEORY":"SGP4","MEAN_MOTION_DOT":"0.00000950","TIME_SYSTEM":"UTC","MEAN_ANOMALY":"290.3241","OBJECT_ID":"2020-088BJ","APOAPSIS":"548.394","COUNTRY_CODE":"US","ARG_OF_PERICENTER":"69.7935","FILE":"3109348","ECCENTRICITY":"0.00017350","CLASSIFICATION_TYPE":"U","RCS_SIZE":"LARGE","EPOCH":"2021-09-05T16:25:58.687392","EPHEMERIS_TYPE":"0","PERIOD":"95.592","DECAY_DATE":null,"TLE_LINE2":"2 47178  53.0542 130.8126 0001735  69.7935 290.3241 15.06407002 43748","GP_ID":"184165788","NORAD_CAT_ID":"47178","TLE_LINE1":"1 47178U 20088BJ  21248.68470703  .00000950  00000-0  82672-4 0  9990"},{"RCS_SIZE":"LARGE","EPOCH":"2021-09-05T16:08:44.003328","EPHEMERIS_TYPE":"0","PERIOD":"95.592","DECAY_DATE":null,"TLE_LINE2":"2 47179  53.0535 140.8822 0001821  71.5147 288.6040 15.06397799 43600","GP_ID":"184166540","NORAD_CAT_ID":"47179","TLE_LINE1":"1 47179U 20088BK  21248.67273152  .00000066  00000-0  23308-4 0  9998","MEAN_MOTION_DOT":"0.00000066","TIME_SYSTEM":"UTC","MEAN_ANOMALY":"288.6040","OBJECT_ID":"2020-088BK","APOAPSIS":"548.481","COUNTRY_CODE":"US","ARG_OF_PERICENTER":"71.5147","FILE":"3109348","ECCENTRICITY":"0.00018210","CLASSIFICATION_TYPE":"U","RA_OF_ASC_NODE":"140.8822","MEAN_MOTION":"15.06397799","LAUNCH_DATE":"2020-11-25","REF_FRAME":"TEME","BSTAR":"0.00002330800000","PERIAPSIS":"545.959","MEAN_ELEMENT_THEORY":"SGP4","CENTER_NAME":"EARTH","OBJECT_TYPE":"PAYLOAD","MEAN_MOTION_DDOT":"0.0000000000000","INCLINATION":"53.0535","SITE":"AFETR","SEMIMAJOR_AXIS":"6925.355","ELEMENT_SET_NO":"999","REV_AT_EPOCH":"4360","OBJECT_NAME":"STARLINK-1913"},{"MEAN_MOTION_DDOT":"0.0000000000000","OBJECT_TYPE":"PAYLOAD","INCLINATION":"53.0511","CENTER_NAME":"EARTH","SEMIMAJOR_AXIS":"6809.124","ELEMENT_SET_NO":"999","OBJECT_NAME":"STARLINK-1914","REV_AT_EPOCH":"4369","SITE":"AFETR","LAUNCH_DATE":"2020-11-25","REF_FRAME":"TEME","MEAN_MOTION":"15.45133074","RA_OF_ASC_NODE":"134.5779","MEAN_ELEMENT_THEORY":"SGP4","BSTAR":"0.00498200000000","PERIAPSIS":"429.839","MEAN_ANOMALY":"273.8731","OBJECT_ID":"2020-088BL","TIME_SYSTEM":"UTC","MEAN_MOTION_DOT":"0.00247142","FILE":"3109348","ARG_OF_PERICENTER":"86.2468","CLASSIFICATION_TYPE":"U","ECCENTRICITY":"0.00016890","APOAPSIS":"432.139","COUNTRY_CODE":"US","EPHEMERIS_TYPE":"0","PERIOD":"93.196","EPOCH":"2021-09-05T16:09:01.016352","RCS_SIZE":"LARGE","TLE_LINE1":"1 47180U 20088BL  21248.67292843  .00247142  00000-0  49820-2 0  9991","DECAY_DATE":null,"GP_ID":"184166787","TLE_LINE2":"2 47180  53.0511 134.5779 0001689  86.2468 273.8731 15.45133074 43697","NORAD_CAT_ID":"47180"},{"ELEMENT_SET_NO":"999","SEMIMAJOR_AXIS":"6925.364","OBJECT_NAME":"STARLINK-1927","REV_AT_EPOCH":"4402","SITE":"AFETR","MEAN_MOTION_DDOT":"0.0000000000000","OBJECT_TYPE":"PAYLOAD","INCLINATION":"53.0547","CENTER_NAME":"EARTH","MEAN_ELEMENT_THEORY":"SGP4","BSTAR":"0.00009609000000","PERIAPSIS":"545.637","LAUNCH_DATE":"2020-11-25","REF_FRAME":"TEME","MEAN_MOTION":"15.06395030","RA_OF_ASC_NODE":"110.9895","FILE":"3109348","ARG_OF_PERICENTER":"77.5629","CLASSIFICATION_TYPE":"U","ECCENTRICITY":"0.00022980","APOAPSIS":"548.820","COUNTRY_CODE":"US","MEAN_ANOMALY":"282.5617","OBJECT_ID":"2020-088BM","TIME_SYSTEM":"UTC","MEAN_MOTION_DOT":"0.00001150","TLE_LINE1":"1 47181U 20088BM  21248.64601483  .00001150  00000-0  96090-4 0  9993","DECAY_DATE":null,"NORAD_CAT_ID":"47181","TLE_LINE2":"2 47181  53.0547 110.9895 0002298  77.5629 282.5617 15.06395030 44020","GP_ID":"184165038","EPHEMERIS_TYPE":"0","PERIOD":"95.592","EPOCH":"2021-09-05T15:30:15.681312","RCS_SIZE":"LARGE"},{"PERIOD":"93.717","EPHEMERIS_TYPE":"0","EPOCH":"2021-09-05T17:45:27.456768","RCS_SIZE":"LARGE","TLE_LINE1":"1 47349U 21005A   21248.73990112  .00606638  00000-0  15665-1 0  9997","TLE_LINE2":"2 47349  53.0499 249.0529 0002090 127.0558 233.0636 15.36533992 34982","GP_ID":"184166058","NORAD_CAT_ID":"47349","DECAY_DATE":null,"OBJECT_ID":"2021-005A","MEAN_ANOMALY":"233.0636","TIME_SYSTEM":"UTC","MEAN_MOTION_DOT":"0.00606638","CLASSIFICATION_TYPE":"U","ECCENTRICITY":"0.00020900","FILE":"3109348","ARG_OF_PERICENTER":"127.0558","COUNTRY_CODE":"US","APOAPSIS":"457.798","REF_FRAME":"TEME","LAUNCH_DATE":"2021-01-20","RA_OF_ASC_NODE":"249.0529","MEAN_MOTION":"15.36533992","MEAN_ELEMENT_THEORY":"SGP4","PERIAPSIS":"454.941","BSTAR":"0.01566500000000","INCLINATION":"53.0499","MEAN_MOTION_DDOT":"0.0000000000000","OBJECT_TYPE":"PAYLOAD","CENTER_NAME":"EARTH","OBJECT_NAME":"STARLINK-1952","REV_AT_EPOCH":"3498","ELEMENT_SET_NO":"999","SEMIMAJOR_AXIS":"6834.505","SITE":"AFETR"},{"MEAN_ELEMENT_THEORY":"SGP4","PERIAPSIS":"547.154","BSTAR":"0.00394110000000","REF_FRAME":"TEME","LAUNCH_DATE":"2021-01-20","RA_OF_ASC_NODE":"252.0689","MEAN_MOTION":"15.06130388","OBJECT_NAME":"STARLINK-2011","REV_AT_EPOCH":"3491","ELEMENT_SET_NO":"999","SEMIMAJOR_AXIS":"6926.175","SITE":"AFETR","INCLINATION":"53.0522","MEAN_MOTION_DDOT":"0.0000000000000","OBJECT_TYPE":"PAYLOAD","CENTER_NAME":"EARTH","TLE_LINE1":"1 47350U 21005B   21248.41930939  .00058481  00000-0  39411-2 0  9998","TLE_LINE2":"2 47350  53.0522 252.0689 0001279  91.3288 268.7847 15.06130388 34914","GP_ID":"184139867","NORAD_CAT_ID":"47350","DECAY_DATE":null,"PERIOD":"95.609","EPHEMERIS_TYPE":"0","EPOCH":"2021-09-05T10:03:48.331296","RCS_SIZE":"LARGE","CLASSIFICATION_TYPE":"U","ECCENTRICITY":"0.00012790","FILE":"3109252","ARG_OF_PERICENTER":"91.3288","COUNTRY_CODE":"US","APOAPSIS":"548.926","OBJECT_ID":"2021-005B","MEAN_ANOMALY":"268.7847","TIME_SYSTEM":"UTC","MEAN_MOTION_DOT":"0.00058481"},{"OBJECT_TYPE":"PAYLOAD","MEAN_MOTION_DDOT":"0.0000000000000","INCLINATION":"53.0515","CENTER_NAME":"EARTH","SEMIMAJOR_AXIS":"6925.329","ELEMENT_SET_NO":"999","REV_AT_EPOCH":"3545","OBJECT_NAME":"STARLINK-2017","SITE":"AFETR","LAUNCH_DATE":"2021-01-20","REF_FRAME":"TEME","RA_OF_ASC_NODE":"212.4870","MEAN_MOTION":"15.06406251","MEAN_ELEMENT_THEORY":"SGP4","BSTAR":"0.00005473000000","PERIAPSIS":"546.223","MEAN_ANOMALY":"342.9656","OBJECT_ID":"2021-005C","MEAN_MOTION_DOT":"0.00000534","TIME_SYSTEM":"UTC","ARG_OF_PERICENTER":"17.1381","FILE":"3109252","ECCENTRICITY":"0.00014020","CLASSIFICATION_TYPE":"U","APOAPSIS":"548.165","COUNTRY_CODE":"US","EPHEMERIS_TYPE":"0","PERIOD":"95.592","RCS_SIZE":"LARGE","EPOCH":"2021-09-05T07:35:12.184800","TLE_LINE1":"1 47351U 21005C   21248.31611325  .00000534  00000-0  54730-4 0  9992","DECAY_DATE":null,"TLE_LINE2":"2 47351  53.0515 212.4870 0001402  17.1381 342.9656 15.06406251 35455","GP_ID":"184141119","NORAD_CAT_ID":"47351"}];
